GLOBALSTAR M094 [+]     
1 39074U 13005C   23336.49507340 -.00000088  00000+0  86441-4 0  9994
2 39074  51.9952  95.3458 0001035 116.8040 243.2932 12.62270134501312
GLOBALSTAR M096 [+]     
1 39075U 13005D   23336.50836056 -.00000098  00000+0  30210-4 0  9990
2 39075  52.0046 143.3827 0001379 100.6013 259.5009 12.62266806500231
GLOBALSTAR M078 [+]     
1 39076U 13005E   23336.00670765 -.00000165  00000+0 -34329-3 0  9999
2 39076  51.9871 230.1857 0001552  39.0848 321.0130 12.62264453498791
GLOBALSTAR M095 [+]     
1 39077U 13005F   23336.11232283 -.00000054  00000+0  27654-3 0  9990
2 39077  51.9794 227.3412 0001610  61.1419 298.9609 12.62271508498664
GLOBALSTAR M087 [+]     
1 52888U 22064A   23335.71855533 -.00000091  00000+0  71131-4 0  9995
2 52888  51.9740 180.4239 0008755 216.3396 143.6911 13.37559609 70966
